{
  "type": "FeatureCollection",
  "features": [
    {
      "type": "Feature",
      "properties": {
        "norad_id": 34350,
        "name": "IRIDIUM 33 DEB",
        "group": "iridium-33-debris",
        "lat": 11.763133542858858,
        "lon": 7.602891258127731,
        "alt_km": 756.0745625308646,
        "timestamp": "2025-12-03T10:52:57.839988+00:00",
        "meta_object_name": "IRIDIUM 33 DEB",
        "meta_object_id": "1997-051ES",
        "meta_epoch": "2025-12-03T02:46:10.970400",
        "meta_mean_motion": 14.45350997,
        "meta_eccentricity": 0.0021834,
        "meta_inclination": 86.3282,
        "meta_ra_of_asc_node": 6.9833,
        "meta_arg_of_pericenter": 165.5973,
        "meta_mean_anomaly": 248.6185,
        "meta_ephemeris_type": 0,
        "meta_classification_type": "U",
        "meta_norad_cat_id": 34350,
        "meta_element_set_no": 999,
        "meta_rev_at_epoch": 88154,
        "meta_bstar": 0.00041343,
        "meta_mean_motion_dot": 1.476e-05,
        "meta_mean_motion_ddot": 0,
        "tle_line1": "1 34350U 97051ES  25337.11540475  .00001476  00000+0  41343-3 0  9999",
        "tle_line2": "2 34350  86.3282   6.9833 0021834 165.5973 248.6185 14.45350997881546"
      },
      "geometry": {
        "type": "Point",
        "coordinates": [
          7.602891258127731,
          11.763133542858858
        ]
      }
    },
    {
      "type": "Feature",
      "properties": {
        "norad_id": 34366,
        "name": "IRIDIUM 33 DEB",
        "group": "iridium-33-debris",
        "lat": 51.75898919649898,
        "lon": 57.97015053125159,
        "alt_km": 715.2801878685204,
        "timestamp": "2025-12-03T10:52:57.839998+00:00",
        "meta_object_name": "IRIDIUM 33 DEB",
        "meta_object_id": "1997-051FJ",
        "meta_epoch": "2025-12-03T04:10:00.139008",
        "meta_mean_motion": 14.53908427,
        "meta_eccentricity": 0.0021712,
        "meta_inclination": 86.371,
        "meta_ra_of_asc_node": 53.4727,
        "meta_arg_of_pericenter": 170.4441,
        "meta_mean_anomaly": 218.0174,
        "meta_ephemeris_type": 0,
        "meta_classification_type": "U",
        "meta_norad_cat_id": 34366,
        "meta_element_set_no": 999,
        "meta_rev_at_epoch": 88043,
        "meta_bstar": 0.0017069,
        "meta_mean_motion_dot": 7.223e-05,
        "meta_mean_motion_ddot": 0,
        "tle_line1": "1 34366U 97051FJ  25337.17361272  .00007223  00000+0  17069-2 0  9991",
        "tle_line2": "2 34366  86.3710  53.4727 0021712 170.4441 218.0174 14.53908427880430"
      },
      "geometry": {
        "type": "Point",
        "coordinates": [
          57.97015053125159,
          51.75898919649898
        ]
      }
    },
    {
      "type": "Feature",
      "properties": {
        "norad_id": 34375,
        "name": "IRIDIUM 33 DEB",
        "group": "iridium-33-debris",
        "lat": 86.10278243699486,
        "lon": -107.27790999280292,
        "alt_km": 795.872605242067,
        "timestamp": "2025-12-03T10:52:57.840009+00:00",
        "meta_object_name": "IRIDIUM 33 DEB",
        "meta_object_id": "1997-051FT",
        "meta_epoch": "2025-12-03T01:02:45.120192",
        "meta_mean_motion": 14.17964565,
        "meta_eccentricity": 0.0102469,
        "meta_inclination": 86.4333,
        "meta_ra_of_asc_node": 186.6042,
        "meta_arg_of_pericenter": 157.2608,
        "meta_mean_anomaly": 1.3107,
        "meta_ephemeris_type": 0,
        "meta_classification_type": "U",
        "meta_norad_cat_id": 34375,
        "meta_element_set_no": 999,
        "meta_rev_at_epoch": 86574,
        "meta_bstar": 0.00052219,
        "meta_mean_motion_dot": 1.144e-05,
        "meta_mean_motion_ddot": 0,
        "tle_line1": "1 34375U 97051FT  25337.04357778  .00001144  00000+0  52219-3 0  9996",
        "tle_line2": "2 34375  86.4333 186.6042 0102469 157.2608   1.3107 14.17964565865749"
      },
      "geometry": {
        "type": "Point",
        "coordinates": [
          -107.27790999280292,
          86.10278243699486
        ]
      }
    },
    {
      "type": "Feature",
      "properties": {
        "norad_id": 34376,
        "name": "IRIDIUM 33 DEB",
        "group": "iridium-33-debris",
        "lat": 56.43101784663505,
        "lon": 16.310950737904257,
        "alt_km": 694.7546570171935,
        "timestamp": "2025-12-03T10:52:57.840020+00:00",
        "meta_object_name": "IRIDIUM 33 DEB",
        "meta_object_id": "1997-051FU",
        "meta_epoch": "2025-12-03T02:24:43.659648",
        "meta_mean_motion": 14.62340336,
        "meta_eccentricity": 0.002606,
        "meta_inclination": 86.2996,
        "meta_ra_of_asc_node": 10.873,
        "meta_arg_of_pericenter": 199.6963,
        "meta_mean_anomaly": 160.3244,
        "meta_ephemeris_type": 0,
        "meta_classification_type": "U",
        "meta_norad_cat_id": 34376,
        "meta_element_set_no": 999,
        "meta_rev_at_epoch": 87866,
        "meta_bstar": 0.0019924,
        "meta_mean_motion_dot": 0.00010138,
        "meta_mean_motion_ddot": 0,
        "tle_line1": "1 34376U 97051FU  25337.10050532  .00010138  00000+0  19924-2 0  9990",
        "tle_line2": "2 34376  86.2996  10.8730 0026060 199.6963 160.3244 14.62340336878668"
      },
      "geometry": {
        "type": "Point",
        "coordinates": [
          16.310950737904257,
          56.43101784663505
        ]
      }
    },
    {
      "type": "Feature",
      "properties": {
        "norad_id": 34486,
        "name": "IRIDIUM 33 DEB",
        "group": "iridium-33-debris",
        "lat": -71.48151358317702,
        "lon": -152.8405400463663,
        "alt_km": 592.2823686796482,
        "timestamp": "2025-12-03T10:52:57.840031+00:00",
        "meta_object_name": "IRIDIUM 33 DEB",
        "meta_object_id": "1997-051GB",
        "meta_epoch": "2025-12-03T03:36:18.288288",
        "meta_mean_motion": 14.9509064,
        "meta_eccentricity": 0.0012894,
        "meta_inclination": 86.3946,
        "meta_ra_of_asc_node": 16.449,
        "meta_arg_of_pericenter": 144.2468,
        "meta_mean_anomaly": 276.3626,
        "meta_ephemeris_type": 0,
        "meta_classification_type": "U",
        "meta_norad_cat_id": 34486,
        "meta_element_set_no": 999,
        "meta_rev_at_epoch": 88843,
        "meta_bstar": 0.0028084,
        "meta_mean_motion_dot": 0.0003094,
        "meta_mean_motion_ddot": 0,
        "tle_line1": "1 34486U 97051GB  25337.15021167  .00030940  00000+0  28084-2 0  9999",
        "tle_line2": "2 34486  86.3946  16.4490 0012894 144.2468 276.3626 14.95090640888431"
      },
      "geometry": {
        "type": "Point",
        "coordinates": [
          -152.8405400463663,
          -71.48151358317702
        ]
      }
    },
    {
      "type": "Feature",
      "properties": {
        "norad_id": 34487,
        "name": "IRIDIUM 33 DEB",
        "group": "iridium-33-debris",
        "lat": -31.977714997005055,
        "lon": -161.33736451327877,
        "alt_km": 740.7616104657973,
        "timestamp": "2025-12-03T10:52:57.840041+00:00",
        "meta_object_name": "IRIDIUM 33 DEB",
        "meta_object_id": "1997-051GC",
        "meta_epoch": "2025-12-03T01:43:00.776928",
        "meta_mean_motion": 14.43195419,
        "meta_eccentricity": 0.0031871,
        "meta_inclination": 86.3443,
        "meta_ra_of_asc_node": 16.5394,
        "meta_arg_of_pericenter": 159.074,
        "meta_mean_anomaly": 229.62,
        "meta_ephemeris_type": 0,
        "meta_classification_type": "U",
        "meta_norad_cat_id": 34487,
        "meta_element_set_no": 999,
        "meta_rev_at_epoch": 88109,
        "meta_bstar": 0.00026232,
        "meta_mean_motion_dot": 9.07e-06,
        "meta_mean_motion_ddot": 0,
        "tle_line1": "1 34487U 97051GC  25337.07153677  .00000907  00000+0  26232-3 0  9997",
        "tle_line2": "2 34487  86.3443  16.5394 0031871 159.0740 229.6200 14.43195419881098"
      },
      "geometry": {
        "type": "Point",
        "coordinates": [
          -161.33736451327877,
          -31.977714997005055
        ]
      }
    },
    {
      "type": "Feature",
      "properties": {
        "norad_id": 34488,
        "name": "IRIDIUM 33 DEB",
        "group": "iridium-33-debris",
        "lat": -57.28878756575846,
        "lon": 136.14564455562137,
        "alt_km": 505.4619291514664,
        "timestamp": "2025-12-03T10:52:57.840052+00:00",
        "meta_object_name": "IRIDIUM 33 DEB",
        "meta_object_id": "1997-051GD",
        "meta_epoch": "2025-12-02T22:49:46.136352",
        "meta_mean_motion": 15.25923999,
        "meta_eccentricity": 0.0015674,
        "meta_inclination": 86.3246,
        "meta_ra_of_asc_node": 310.649,
        "meta_arg_of_pericenter": 66.3953,
        "meta_mean_anomaly": 293.8937,
        "meta_ephemeris_type": 0,
        "meta_classification_type": "U",
        "meta_norad_cat_id": 34488,
        "meta_element_set_no": 999,
        "meta_rev_at_epoch": 89090,
        "meta_bstar": 0.005559,
        "meta_mean_motion_dot": 0.0014559,
        "meta_mean_motion_ddot": 0,
        "tle_line1": "1 34488U 97051GD  25336.95122843  .00145590  00000+0  55590-2 0  9991",
        "tle_line2": "2 34488  86.3246 310.6490 0015674  66.3953 293.8937 15.25923999890907"
      },
      "geometry": {
        "type": "Point",
        "coordinates": [
          136.14564455562137,
          -57.28878756575846
        ]
      }
    }
  ]
}